Unnamed: 0,NORAD_CAT_ID,OBJECT_NAME,EPOCH,MEAN_MOTION,ECCENTRICITY,INCLINATION,RA_OF_ASC_NODE,ARG_OF_PERICENTER,MEAN_ANOMALY,BSTAR,MEAN_MOTION_DOT,MEAN_MOTION_DDOT,TLE_LINE1,TLE_LINE2,SEMIMAJOR_AXIS,PERIOD,APOGEE,PERIGEE,alltitude
1289306,48481,STARLINK-2706,2021-07-24 10:31:25.734720,15.06405247,0.0001085,53.0499,224.9664,65.3229,294.7873,-0.00011966,-2.063e-05,0,1 48481U 21040BF  21205.43849230 -.00002063  00000-0 -11966-3 0  9994,2 48481  53.0499 224.9664 0001085  65.3229 294.7873 15.06405247 13010,6925.332,95.592,547.949,546.446,547.7645712721844
1289305,48481,STARLINK-2706,2021-07-24 10:31:25.734720,15.06405247,0.0001085,53.0499,224.9664,65.3229,294.7873,-0.00011966,-2.063e-05,0,1 48481U 21040BF  21205.43849230 -.00002063  00000-0 -11966-3 0  9994,2 48481  53.0499 224.9664 0001085  65.3229 294.7873 15.06405247 11737,6925.332,95.592,547.949,546.446,547.7645712721844
1286905,48481,STARLINK-2706,2021-07-23 18:36:02.250720,15.06392304,0.000132,53.0491,227.9454,67.4858,292.627,5.3834e-05,5.2e-06,0,1 48481U 21040BF  21204.77502605  .00000520  00000-0  53834-4 0  9997,2 48481  53.0491 227.9454 0001320  67.4858 292.6270 15.06392304 11638,6925.372,95.593,548.151,546.323,547.7640221876485
1285120,48481,STARLINK-2706,2021-07-23 10:38:20.386464,15.06390527,0.0001291,53.0491,229.4348,67.5457,292.5669,4.4908e-05,3.87e-06,0,1 48481U 21040BF  21204.44329151  .00000387  00000-0  44908-4 0  9997,2 48481  53.0491 229.4348 0001291  67.5457 292.5669 15.06390527 11580,6925.378,95.593,548.137,546.349,547.7790533191727
1281906,48481,STARLINK-2706,2021-07-22 12:20:47.207040,15.06387589,0.0001294,53.049,233.6053,68.4032,291.7094,4.4943e-05,3.88e-06,0,1 48481U 21040BF  21203.51443311  .00000388  00000-0  44943-4 0  9999,2 48481  53.0490 233.6053 0001294  68.4032 291.7094 15.06387589 11443,6925.387,95.593,548.148,546.355,547.7969560065648
1281905,48481,STARLINK-2706,2021-07-22 12:20:47.207040,15.06387589,0.0001294,53.049,233.6053,68.4032,291.7094,4.4943e-05,3.88e-06,0,1 48481U 21040BF  21203.51443311  .00000388  00000-0  44943-4 0  9999,2 48481  53.0490 233.6053 0001294  68.4032 291.7094 15.06387589 12725,6925.387,95.593,548.148,546.355,547.7969560065648
1281084,48481,STARLINK-2706,2021-07-22 09:09:42.211584,15.06387302,0.0001288,53.049,234.201,68.5307,291.5819,4.249e-05,3.51e-06,0,1 48481U 21040BF  21203.38173856  .00000351  00000-0  42490-4 0  9993,2 48481  53.0490 234.2010 0001288  68.5307 291.5819 15.06387302 11426,6925.387,95.593,548.144,546.36,547.8026357199374
1278146,48481,STARLINK-2706,2021-07-21 18:49:50.635776,15.06393729,0.0001257,53.0489,236.8821,68.4543,291.658,-7.1373e-05,-1.344e-05,0,1 48481U 21040BF  21202.78461384 -.00001344  00000-0 -71373-4 0  9999,2 48481  53.0489 236.8821 0001257  68.4543 291.6580 15.06393729 11335,6925.368,95.593,548.103,546.362,547.7928988201933
1276496,48481,STARLINK-2706,2021-07-21 12:27:41.987520,15.0639409,0.0001253,53.0489,238.0736,68.6887,291.4236,-7.3111e-05,-1.37e-05,0,1 48481U 21040BF  21202.51922568 -.00001370  00000-0 -73111-4 0  9997,2 48481  53.0489 238.0736 0001253  68.6887 291.4236 15.06394090 11296,6925.367,95.593,548.099,546.364,547.7921146458024
1276044,48481,STARLINK-2706,2021-07-21 10:52:08.727456,15.06394083,0.0001251,53.0489,238.3714,68.7474,291.3649,-7.5184e-05,-1.401e-05,0,1 48481U 21040BF  21202.45287879 -.00001401  00000-0 -75184-4 0  9996,2 48481  53.0489 238.3714 0001251  68.7474 291.3649 15.06394083 12566,6925.367,95.593,548.098,546.365,547.7981481538238
1272192,48481,STARLINK-2706,2021-07-20 12:34:35.492160,15.06394234,0.0001223,53.049,242.5416,69.8612,290.2508,-8.451e-05,-1.54e-05,0,1 48481U 21040BF  21201.52402190 -.00001540  00000-0 -84510-4 0  9995,2 48481  53.0490 242.5416 0001223  69.8612 290.2508 15.06394234 11142,6925.366,95.593,548.078,546.384,547.81840200584
1271233,48481,STARLINK-2706,2021-07-20 09:23:30.728832,15.0639466,0.0001199,53.0489,243.1373,68.741,291.3707,-8.4415e-05,-1.538e-05,0,1 48481U 21040BF  21201.39132788 -.00001538  00000-0 -84415-4 0  9994,2 48481  53.0489 243.1373 0001199  68.7410 291.3707 15.06394660 12401,6925.365,95.592,548.06,546.4,547.8094012968303
1268314,48481,STARLINK-2706,2021-07-19 12:41:29.289408,15.06407025,0.0001168,53.0491,247.0097,72.6551,287.4565,3.129e-05,1.85e-06,0,1 48481U 21040BF  21200.52881122  .00000185  00000-0  31290-4 0  9999,2 48481  53.0491 247.0097 0001168  72.6551 287.4565 15.06407025 12279,6925.327,95.592,548.001,546.383,547.828210793226
1264803,48481,STARLINK-2706,2021-07-18 12:48:24.488064,15.06404392,0.0001185,53.0492,251.4784,71.8452,288.2665,3.4271e-05,2.29e-06,0,1 48481U 21040BF  21199.53361676  .00000229  00000-0  34271-4 0  9995,2 48481  53.0492 251.4784 0001185  71.8452 288.2665 15.06404392 10847,6925.335,95.592,548.021,546.379,547.8231961829135
1260689,48481,STARLINK-2706,2021-07-17 12:55:19.491456,15.06401758,0.0001179,53.0493,255.9465,72.8666,287.2452,4.2314e-05,3.49e-06,0,1 48481U 21040BF  21198.53842004  .00000349  00000-0  42314-4 0  9993,2 48481  53.0493 255.9465 0001179  72.8666 287.2452 15.06401758 11975,6925.343,95.592,548.025,546.392,547.8464569906032
1260690,48481,STARLINK-2706,2021-07-17 12:55:19.491456,15.06401758,0.0001179,53.0493,255.9465,72.8666,287.2452,4.2314e-05,3.49e-06,0,1 48481U 21040BF  21198.53842004  .00000349  00000-0  42314-4 0  9993,2 48481  53.0493 255.9465 0001179  72.8666 287.2452 15.06401758 10693,6925.343,95.592,548.025,546.392,547.8464569906032
1260076,48481,STARLINK-2706,2021-07-17 09:44:14.812800,15.06401468,0.0001181,53.0495,256.5424,74.5775,285.5344,4.073e-05,3.25e-06,0,1 48481U 21040BF  21198.40572700  .00000325  00000-0  40730-4 0  9996,2 48481  53.0495 256.5424 0001181  74.5775 285.5344 15.06401468 10677,6925.344,95.592,548.027,546.391,547.8727823904425
1256703,48481,STARLINK-2706,2021-07-16 09:51:09.627840,15.06398114,0.0001182,53.0495,261.0104,74.8585,285.2534,4.0439e-05,3.21e-06,0,1 48481U 21040BF  21197.41052810  .00000321  00000-0  40439-4 0  9993,2 48481  53.0495 261.0104 0001182  74.8585 285.2534 15.06398114 10521,6925.354,95.592,548.038,546.401,547.8853747789506
1256702,48481,STARLINK-2706,2021-07-16 09:51:09.627840,15.06398114,0.0001182,53.0495,261.0104,74.8585,285.2534,4.0439e-05,3.21e-06,0,1 48481U 21040BF  21197.41052810  .00000321  00000-0  40439-4 0  9993,2 48481  53.0495 261.0104 0001182  74.8585 285.2534 15.06398114 11803,6925.354,95.592,548.038,546.401,547.8853747789506
1253802,48481,STARLINK-2706,2021-07-15 05:11:27.139776,15.06393671,0.0001222,53.0497,266.3721,74.3788,285.7336,4.2248e-05,3.48e-06,0,1 48481U 21040BF  21196.21628634  .00000348  00000-0  42248-4 0  9992,2 48481  53.0497 266.3721 0001222  74.3788 285.7336 15.06393671 10349,6925.368,95.593,548.079,546.387,547.8812639479601
1251414,48481,STARLINK-2706,2021-07-14 14:51:35.882784,15.06390188,0.0001244,53.0498,269.053,73.7848,286.3278,3.2926e-05,2.09e-06,0,1 48481U 21040BF  21195.61916531  .00000209  00000-0  32926-4 0  9999,2 48481  53.0498 269.0530 0001244  73.7848 286.3278 15.06390188 10254,6925.379,95.593,548.105,546.382,547.8847856814317
1250579,48481,STARLINK-2706,2021-07-14 11:40:31.823040,15.06390419,0.0001237,53.0498,269.6487,73.8852,286.2273,3.5996e-05,2.55e-06,0,1 48481U 21040BF  21195.48647086  .00000255  00000-0  35996-4 0  9991,2 48481  53.0498 269.6487 0001237  73.8852 286.2273 15.06390419 10238,6925.378,95.593,548.1,546.386,547.8809049048382
1250577,48481,STARLINK-2706,2021-07-14 11:40:31.823040,15.06390419,0.0001237,53.0498,269.6487,73.8852,286.2273,3.5996e-05,2.55e-06,0,1 48481U 21040BF  21195.48647086  .00000255  00000-0  35996-4 0  9991,2 48481  53.0498 269.6487 0001237  73.8852 286.2273 15.06390419 11510,6925.378,95.593,548.1,546.386,547.8809049048382
1246979,48481,STARLINK-2706,2021-07-13 14:58:30.102528,15.06387151,0.0001255,53.0499,273.521,76.1025,284.0103,4.0147e-05,3.16e-06,0,1 48481U 21040BF  21194.62395952  .00000316  00000-0  40147-4 0  9990,2 48481  53.0499 273.5210 0001255  76.1025 284.0103 15.06387151 10108,6925.388,95.593,548.122,546.384,547.9200727741118
1246223,48481,STARLINK-2706,2021-07-13 13:22:57.713088,15.06386957,0.0001251,53.0499,273.8188,76.2303,283.8826,3.9423e-05,3.06e-06,0,1 48481U 21040BF  21194.55761242  .00000306  00000-0  39423-4 0  9995,2 48481  53.0499 273.8188 0001251  76.2303 283.8826 15.06386957 10091,6925.389,95.593,548.12,546.387,547.9277661070552
1245444,48481,STARLINK-2706,2021-07-13 10:11:52.882368,15.06386713,0.0001252,53.0499,274.4145,76.7863,283.3265,5.2093e-05,4.94e-06,0,1 48481U 21040BF  21194.42491762  .00000494  00000-0  52093-4 0  9994,2 48481  53.0499 274.4145 0001252  76.7863 283.3265 15.06386713 11350,6925.389,95.593,548.121,546.387,547.9378138108773
1242093,48481,STARLINK-2706,2021-07-12 13:29:51.782496,15.06383466,0.0001277,53.0499,278.2868,76.7394,283.3737,4.4814e-05,3.86e-06,0,1 48481U 21040BF  21193.56240489  .00000386  00000-0  44814-4 0  9998,2 48481  53.0499 278.2868 0001277  76.7394 283.3737 15.06383466  9948,6925.399,95.593,548.149,546.38,547.9423314547017
1240614,48481,STARLINK-2706,2021-07-12 05:32:09.698784,15.0639008,0.0001276,53.0499,279.776,76.7064,283.4067,-4.9865e-05,-1.024e-05,0,1 48481U 21040BF  21193.23066781 -.00001024  00000-0 -49865-4 0  9996,2 48481  53.0499 279.7760 0001276  76.7064 283.4067 15.06390080 11173,6925.379,95.593,548.128,546.36,547.9210972526877
1238624,48481,STARLINK-2706,2021-07-11 18:23:22.960608,15.06389678,0.0001267,53.05,281.8613,75.9096,284.2034,-4.5474e-05,-9.58e-06,0,1 48481U 21040BF  21192.76623797 -.00000958  00000-0 -45474-4 0  9996,2 48481  53.0500 281.8613 0001267  75.9096 284.2034 15.06389678  9826,6925.38,95.593,548.123,546.368,547.913887963886
1237665,48481,STARLINK-2706,2021-07-11 13:36:45.828576,15.06389225,0.0001261,53.05,282.7549,76.0922,284.0207,-5.1554e-05,-1.049e-05,0,1 48481U 21040BF  21192.56719709 -.00001049  00000-0 -51554-4 0  9991,2 48481  53.0500 282.7549 0001261  76.0922 284.0207 15.06389225  9792,6925.382,95.593,548.12,546.373,547.9180057391044
